STARLINK-3179           
1 51141U 22005AP  26076.25315782  .00000586  00000+0  54896-4 0  9999
2 51141  53.2153 265.1681 0000463 113.0499 247.0542 15.08845035229884
STARLINK-3369           
1 51142U 22005AQ  26076.16853235  .00032324  00000+0  15111-2 0  9990
2 51142  53.2143 247.7310 0002434 217.8969 142.1856 15.19522532230111
STARLINK-3184           
1 51143U 22005AR  26076.23753266 -.00001729  00000+0 -90573-4 0  9996
2 51143  53.2171 275.2370 0001407  90.5559 269.5595 15.08846403229739
STARLINK-3185           
1 51144U 22005AS  26076.25781459  .00000521  00000+0  50840-4 0  9994
2 51144  53.2168 265.1596 0001441  84.0749 276.0407 15.08840468229887
STARLINK-3354           
1 51146U 22005AU  26076.06645034  .00000568  00000+0  53790-4 0  9991
2 51146  53.2176 266.0149 0001397  93.5261 266.5891 15.08839678229844
STARLINK-3352           
1 51147U 22005AV  26075.92542512  .00042132  00000+0  16558-2 0  9995
2 51147  53.1899 263.4261 0000808 166.3106 193.7915 15.25296884229871
STARLINK-3359           
1 51148U 22005AW  26076.24496010  .00014034  00000+0  88075-3 0  9997
2 51148  53.2139 275.3598 0001634 124.7674 235.3472 15.09557421229736
STARLINK-3360           
1 51149U 22005AX  26076.27527162  .00000202  00000+0  30772-4 0  9998
2 51149  53.2172 274.8860 0001280  86.4915 273.6224 15.08839280229745
STARLINK-3357           
1 51150U 22005AY  26076.21265748  .00001116  00000+0  88196-4 0  9991
2 51150  53.2166 264.9626 0001440  86.8848 273.2309 15.08833748229885
STARLINK-3364           
1 51152U 22005BA  26076.25221731  .00000370  00000+0  41362-4 0  9996
2 51152  53.2169 274.7879 0001418  90.5142 269.6013 15.08832105229745
STARLINK-3181           
1 51461U 22010F   26076.18877831  .00000640  00000+0  58316-4 0  9992
2 51461  53.2169 245.4569 0001528  89.0629 271.0539 15.08841085227952
STARLINK-3166           
1 51462U 22010G   26076.18605471  .00000050  00000+0  21233-4 0  9995
2 51462  53.2160 245.4775 0001330  90.5856 269.5288 15.08836969227951
STARLINK-3419           
1 51463U 22010H   26075.76189714 -.00000204  00000+0  52908-5 0  9992
2 51463  53.2165 247.3729 0001337  92.4213 267.6932 15.08836071227580
STARLINK-3189           
1 51464U 22010J   26076.24397503 -.00001314  00000+0 -64474-4 0  9998
2 51464  53.2165 245.2084 0001095  91.2678 268.8440 15.08845345228464
STARLINK-3401           
1 51465U 22010K   26076.17406116 -.00000061  00000+0  14263-4 0  9990
2 51465  53.2170 245.5220 0001275  89.0622 271.0516 15.08837884228458
STARLINK-3178           
1 51467U 22010M   26076.15566590 -.00002714  00000+0 -15255-3 0  9992
2 51467  53.2155 245.6046 0001310  92.5078 267.6064 15.08832891227646
