[{"OBJECT_NAME":"STARLINK-3179","OBJECT_ID":"2022-005AP","EPOCH":"2026-03-17T06:04:32.835648","MEAN_MOTION":15.08845035,"ECCENTRICITY":4.632e-5,"INCLINATION":53.2153,"RA_OF_ASC_NODE":265.1681,"ARG_OF_PERICENTER":113.0499,"MEAN_ANOMALY":247.0542,"EPHEMERIS_TYPE":0,"CLASSIFICATION_TYPE":"U","NORAD_CAT_ID":51141,"ELEMENT_SET_NO":999,"REV_AT_EPOCH":22988,"BSTAR":5.4895544e-5,"MEAN_MOTION_DOT":5.86e-6,"MEAN_MOTION_DDOT":0},{"OBJECT_NAME":"STARLINK-3369","OBJECT_ID":"2022-005AQ","EPOCH":"2026-03-17T04:02:41.195040","MEAN_MOTION":15.19522532,"ECCENTRICITY":0.0002434,"INCLINATION":53.2143,"RA_OF_ASC_NODE":247.731,"ARG_OF_PERICENTER":217.8969,"MEAN_ANOMALY":142.1856,"EPHEMERIS_TYPE":0,"CLASSIFICATION_TYPE":"U","NORAD_CAT_ID":51142,"ELEMENT_SET_NO":999,"REV_AT_EPOCH":23011,"BSTAR":0.0015111,"MEAN_MOTION_DOT":0.00032324,"MEAN_MOTION_DDOT":0},{"OBJECT_NAME":"STARLINK-3184","OBJECT_ID":"2022-005AR","EPOCH":"2026-03-17T05:42:02.821824","MEAN_MOTION":15.08846403,"ECCENTRICITY":0.00014076,"INCLINATION":53.2171,"RA_OF_ASC_NODE":275.237,"ARG_OF_PERICENTER":90.5559,"MEAN_ANOMALY":269.5595,"EPHEMERIS_TYPE":0,"CLASSIFICATION_TYPE":"U","NORAD_CAT_ID":51143,"ELEMENT_SET_NO":999,"REV_AT_EPOCH":22973,"BSTAR":-9.0572727e-5,"MEAN_MOTION_DOT":-1.729e-5,"MEAN_MOTION_DDOT":0},{"OBJECT_NAME":"STARLINK-3185","OBJECT_ID":"2022-005AS","EPOCH":"2026-03-17T06:11:15.180576","MEAN_MOTION":15.08840468,"ECCENTRICITY":0.00014413,"INCLINATION":53.2168,"RA_OF_ASC_NODE":265.1596,"ARG_OF_PERICENTER":84.0749,"MEAN_ANOMALY":276.0407,"EPHEMERIS_TYPE":0,"CLASSIFICATION_TYPE":"U","NORAD_CAT_ID":51144,"ELEMENT_SET_NO":999,"REV_AT_EPOCH":22988,"BSTAR":5.0840009e-5,"MEAN_MOTION_DOT":5.21e-6,"MEAN_MOTION_DDOT":0},{"OBJECT_NAME":"STARLINK-3354","OBJECT_ID":"2022-005AU","EPOCH":"2026-03-17T01:35:41.309376","MEAN_MOTION":15.08839678,"ECCENTRICITY":0.00013978,"INCLINATION":53.2176,"RA_OF_ASC_NODE":266.0149,"ARG_OF_PERICENTER":93.5261,"MEAN_ANOMALY":266.5891,"EPHEMERIS_TYPE":0,"CLASSIFICATION_TYPE":"U","NORAD_CAT_ID":51146,"ELEMENT_SET_NO":999,"REV_AT_EPOCH":22984,"BSTAR":5.3790485e-5,"MEAN_MOTION_DOT":5.68e-6,"MEAN_MOTION_DDOT":0},{"OBJECT_NAME":"STARLINK-3352","OBJECT_ID":"2022-005AV","EPOCH":"2026-03-16T22:12:36.730368","MEAN_MOTION":15.25296884,"ECCENTRICITY":8.081e-5,"INCLINATION":53.1899,"RA_OF_ASC_NODE":263.4261,"ARG_OF_PERICENTER":166.3106,"MEAN_ANOMALY":193.7915,"EPHEMERIS_TYPE":0,"CLASSIFICATION_TYPE":"U","NORAD_CAT_ID":51147,"ELEMENT_SET_NO":999,"REV_AT_EPOCH":22987,"BSTAR":0.0016558078,"MEAN_MOTION_DOT":0.00042132,"MEAN_MOTION_DDOT":0},{"OBJECT_NAME":"STARLINK-3359","OBJECT_ID":"2022-005AW","EPOCH":"2026-03-17T05:52:44.552640","MEAN_MOTION":15.09557421,"ECCENTRICITY":0.00016341,"INCLINATION":53.2139,"RA_OF_ASC_NODE":275.3598,"ARG_OF_PERICENTER":124.7674,"MEAN_ANOMALY":235.3472,"EPHEMERIS_TYPE":0,"CLASSIFICATION_TYPE":"U","NORAD_CAT_ID":51148,"ELEMENT_SET_NO":999,"REV_AT_EPOCH":22973,"BSTAR":0.00088074786,"MEAN_MOTION_DOT":0.00014034,"MEAN_MOTION_DDOT":0},{"OBJECT_NAME":"STARLINK-3360","OBJECT_ID":"2022-005AX","EPOCH":"2026-03-17T06:36:23.467968","MEAN_MOTION":15.0883928,"ECCENTRICITY":0.00012802,"INCLINATION":53.2172,"RA_OF_ASC_NODE":274.886,"ARG_OF_PERICENTER":86.4915,"MEAN_ANOMALY":273.6224,"EPHEMERIS_TYPE":0,"CLASSIFICATION_TYPE":"U","NORAD_CAT_ID":51149,"ELEMENT_SET_NO":999,"REV_AT_EPOCH":22974,"BSTAR":3.0772069e-5,"MEAN_MOTION_DOT":2.02e-6,"MEAN_MOTION_DDOT":0},{"OBJECT_NAME":"STARLINK-3357","OBJECT_ID":"2022-005AY","EPOCH":"2026-03-17T05:06:13.606272","MEAN_MOTION":15.08833748,"ECCENTRICITY":0.00014408,"INCLINATION":53.2166,"RA_OF_ASC_NODE":264.9626,"ARG_OF_PERICENTER":86.8848,"MEAN_ANOMALY":273.2309,"EPHEMERIS_TYPE":0,"CLASSIFICATION_TYPE":"U","NORAD_CAT_ID":51150,"ELEMENT_SET_NO":999,"REV_AT_EPOCH":22988,"BSTAR":8.8195886e-5,"MEAN_MOTION_DOT":1.116e-5,"MEAN_MOTION_DDOT":0},{"OBJECT_NAME":"STARLINK-3364","OBJECT_ID":"2022-005BA","EPOCH":"2026-03-17T06:03:11.575584","MEAN_MOTION":15.08832105,"ECCENTRICITY":0.00014187,"INCLINATION":53.2169,"RA_OF_ASC_NODE":274.7879,"ARG_OF_PERICENTER":90.5142,"MEAN_ANOMALY":269.6013,"EPHEMERIS_TYPE":0,"CLASSIFICATION_TYPE":"U","NORAD_CAT_ID":51152,"ELEMENT_SET_NO":999,"REV_AT_EPOCH":22974,"BSTAR":4.1362295e-5,"MEAN_MOTION_DOT":3.7e-6,"MEAN_MOTION_DDOT":0},{"OBJECT_NAME":"STARLINK-3181","OBJECT_ID":"2022-010F","EPOCH":"2026-03-17T04:31:50.445984","MEAN_MOTION":15.08841085,"ECCENTRICITY":0.00015287,"INCLINATION":53.2169,"RA_OF_ASC_NODE":245.4569,"ARG_OF_PERICENTER":89.0629,"MEAN_ANOMALY":271.0539,"EPHEMERIS_TYPE":0,"CLASSIFICATION_TYPE":"U","NORAD_CAT_ID":51461,"ELEMENT_SET_NO":999,"REV_AT_EPOCH":22795,"BSTAR":5.8315964e-5,"MEAN_MOTION_DOT":6.4e-6,"MEAN_MOTION_DDOT":0},{"OBJECT_NAME":"STARLINK-3166","OBJECT_ID":"2022-010G","EPOCH":"2026-03-17T04:27:55.126944","MEAN_MOTION":15.08836969,"ECCENTRICITY":0.00013309,"INCLINATION":53.216,"RA_OF_ASC_NODE":245.4775,"ARG_OF_PERICENTER":90.5856,"MEAN_ANOMALY":269.5288,"EPHEMERIS_TYPE":0,"CLASSIFICATION_TYPE":"U","NORAD_CAT_ID":51462,"ELEMENT_SET_NO":999,"REV_AT_EPOCH":22795,"BSTAR":2.1232574e-5,"MEAN_MOTION_DOT":5.0e-7,"MEAN_MOTION_DDOT":0},{"OBJECT_NAME":"STARLINK-3419","OBJECT_ID":"2022-010H","EPOCH":"2026-03-16T18:17:07.912896","MEAN_MOTION":15.08836071,"ECCENTRICITY":0.00013374,"INCLINATION":53.2165,"RA_OF_ASC_NODE":247.3729,"ARG_OF_PERICENTER":92.4213,"MEAN_ANOMALY":267.6932,"EPHEMERIS_TYPE":0,"CLASSIFICATION_TYPE":"U","NORAD_CAT_ID":51463,"ELEMENT_SET_NO":999,"REV_AT_EPOCH":22758,"BSTAR":5.290796e-6,"MEAN_MOTION_DOT":-2.04e-6,"MEAN_MOTION_DDOT":0},{"OBJECT_NAME":"STARLINK-3189","OBJECT_ID":"2022-010J","EPOCH":"2026-03-17T05:51:19.442592","MEAN_MOTION":15.08845345,"ECCENTRICITY":0.00010955,"INCLINATION":53.2165,"RA_OF_ASC_NODE":245.2084,"ARG_OF_PERICENTER":91.2678,"MEAN_ANOMALY":268.844,"EPHEMERIS_TYPE":0,"CLASSIFICATION_TYPE":"U","NORAD_CAT_ID":51464,"ELEMENT_SET_NO":999,"REV_AT_EPOCH":22846,"BSTAR":-6.4473992e-5,"MEAN_MOTION_DOT":-1.314e-5,"MEAN_MOTION_DDOT":0},{"OBJECT_NAME":"STARLINK-3401","OBJECT_ID":"2022-010K","EPOCH":"2026-03-17T04:10:38.884224","MEAN_MOTION":15.08837884,"ECCENTRICITY":0.00012759,"INCLINATION":53.217,"RA_OF_ASC_NODE":245.522,"ARG_OF_PERICENTER":89.0622,"MEAN_ANOMALY":271.0516,"EPHEMERIS_TYPE":0,"CLASSIFICATION_TYPE":"U","NORAD_CAT_ID":51465,"ELEMENT_SET_NO":999,"REV_AT_EPOCH":22845,"BSTAR":1.4263375e-5,"MEAN_MOTION_DOT":-6.1e-7,"MEAN_MOTION_DDOT":0},{"OBJECT_NAME":"STARLINK-3178","OBJECT_ID":"2022-010M","EPOCH":"2026-03-17T03:44:09.533760","MEAN_MOTION":15.08832891,"ECCENTRICITY":0.00013106,"INCLINATION":53.2155,"RA_OF_ASC_NODE":245.6046,"ARG_OF_PERICENTER":92.5078,"MEAN_ANOMALY":267.6064,"EPHEMERIS_TYPE":0,"CLASSIFICATION_TYPE":"U","NORAD_CAT_ID":51467,"ELEMENT_SET_NO":999,"REV_AT_EPOCH":22764,"BSTAR":-0.00015254796,"MEAN_MOTION_DOT":-2.714e-5,"MEAN_MOTION_DDOT":0}]
